{"fetched_at":"2026-07-12T07:15:23.207Z","source":"https://celestrak.org/NORAD/elements/gp.php?GROUP=spire&FORMAT=JSON","constellation":"spire","records":[{"OBJECT_NAME":"LEMUR-2-HUBBLE-4","OBJECT_ID":"2025-135AP","EPOCH":"2026-07-11T20:36:29.353248","CLASSIFICATION_TYPE":"U","MEAN_MOTION":14.93679245,"ECCENTRICITY":0.00024156,"INCLINATION":97.7716,"RA_OF_ASC_NODE":306.4778,"ARG_OF_PERICENTER":171.566,"MEAN_ANOMALY":188.5601,"EPHEMERIS_TYPE":0,"NORAD_CAT_ID":64565,"ELEMENT_SET_NO":999,"REV_AT_EPOCH":5755,"BSTAR":0.00011146163,"MEAN_MOTION_DOT":0.00001122,"MEAN_MOTION_DDOT":0},{"OBJECT_NAME":"LEMUR-2-SEJONG-2","OBJECT_ID":"2025-135BL","EPOCH":"2026-07-11T21:44:36.512160","CLASSIFICATION_TYPE":"U","MEAN_MOTION":14.96896832,"ECCENTRICITY":0.00037097,"INCLINATION":97.7702,"RA_OF_ASC_NODE":307.7628,"ARG_OF_PERICENTER":234.1005,"MEAN_ANOMALY":125.9873,"EPHEMERIS_TYPE":0,"NORAD_CAT_ID":64586,"ELEMENT_SET_NO":999,"REV_AT_EPOCH":5764,"BSTAR":0.00019470149,"MEAN_MOTION_DOT":0.00002176,"MEAN_MOTION_DDOT":0},{"OBJECT_NAME":"LEMUR-2-HUBBLE-5","OBJECT_ID":"2025-135BT","EPOCH":"2026-07-11T20:50:54.647520","CLASSIFICATION_TYPE":"U","MEAN_MOTION":14.94207446,"ECCENTRICITY":0.00041679,"INCLINATION":97.7737,"RA_OF_ASC_NODE":307.1531,"ARG_OF_PERICENTER":248.9556,"MEAN_ANOMALY":111.1218,"EPHEMERIS_TYPE":0,"NORAD_CAT_ID":64840,"ELEMENT_SET_NO":999,"REV_AT_EPOCH":5759,"BSTAR":0.0001146691,"MEAN_MOTION_DOT":0.00001172,"MEAN_MOTION_DDOT":0},{"OBJECT_NAME":"LEMUR-2-KARENDARRELL","OBJECT_ID":"2025-135BU","EPOCH":"2026-07-11T22:17:29.485536","CLASSIFICATION_TYPE":"U","MEAN_MOTION":15.00470423,"ECCENTRICITY":0.00120732,"INCLINATION":97.7707,"RA_OF_ASC_NODE":309.1021,"ARG_OF_PERICENTER":114.2075,"MEAN_ANOMALY":246.0412,"EPHEMERIS_TYPE":0,"NORAD_CAT_ID":64841,"ELEMENT_SET_NO":999,"REV_AT_EPOCH":5772,"BSTAR":0.00035628938,"MEAN_MOTION_DOT":0.00004432,"MEAN_MOTION_DDOT":0},{"OBJECT_NAME":"LEMUR-2-LUCILLE-ROSE","OBJECT_ID":"2025-135BV","EPOCH":"2026-07-11T20:03:12.003840","CLASSIFICATION_TYPE":"U","MEAN_MOTION":15.00464612,"ECCENTRICITY":0.00144668,"INCLINATION":97.7712,"RA_OF_ASC_NODE":309.0456,"ARG_OF_PERICENTER":199.4062,"MEAN_ANOMALY":160.6612,"EPHEMERIS_TYPE":0,"NORAD_CAT_ID":65403,"ELEMENT_SET_NO":999,"REV_AT_EPOCH":5233,"BSTAR":0.0003073791,"MEAN_MOTION_DOT":0.00003816,"MEAN_MOTION_DDOT":0},{"OBJECT_NAME":"LEMUR-2-AFFIE-WAUWIE","OBJECT_ID":"2025-248C","EPOCH":"2026-07-11T10:43:59.347488","CLASSIFICATION_TYPE":"U","MEAN_MOTION":15.28146061,"ECCENTRICITY":0.00086364,"INCLINATION":45.3896,"RA_OF_ASC_NODE":343.4521,"ARG_OF_PERICENTER":232.3245,"MEAN_ANOMALY":127.6861,"EPHEMERIS_TYPE":0,"NORAD_CAT_ID":66295,"ELEMENT_SET_NO":999,"REV_AT_EPOCH":3830,"BSTAR":0.00045936216,"MEAN_MOTION_DOT":0.00012568,"MEAN_MOTION_DDOT":0},{"OBJECT_NAME":"OTTER SDM","OBJECT_ID":"2025-276N","EPOCH":"2026-07-11T22:30:02.153088","CLASSIFICATION_TYPE":"U","MEAN_MOTION":15.20033189,"ECCENTRICITY":0.00042281,"INCLINATION":97.421,"RA_OF_ASC_NODE":266.0056,"ARG_OF_PERICENTER":269.4972,"MEAN_ANOMALY":90.5779,"EPHEMERIS_TYPE":0,"NORAD_CAT_ID":66678,"ELEMENT_SET_NO":999,"REV_AT_EPOCH":3417,"BSTAR":0.0001905854,"MEAN_MOTION_DOT":0.00004041,"MEAN_MOTION_DDOT":0},{"OBJECT_NAME":"LEMUR-2-STAS-GORBUK","OBJECT_ID":"2025-276W","EPOCH":"2026-07-11T18:15:12.905856","CLASSIFICATION_TYPE":"U","MEAN_MOTION":15.19636638,"ECCENTRICITY":0.00034497,"INCLINATION":97.4242,"RA_OF_ASC_NODE":265.8836,"ARG_OF_PERICENTER":265.6939,"MEAN_ANOMALY":94.3901,"EPHEMERIS_TYPE":0,"NORAD_CAT_ID":66686,"ELEMENT_SET_NO":999,"REV_AT_EPOCH":3414,"BSTAR":0.0001630158,"MEAN_MOTION_DOT":0.00003406,"MEAN_MOTION_DDOT":0},{"OBJECT_NAME":"LEMUR-2-TEODOR","OBJECT_ID":"2025-276DG","EPOCH":"2026-07-11T17:12:59.330304","CLASSIFICATION_TYPE":"U","MEAN_MOTION":15.21313893,"ECCENTRICITY":0.0002273,"INCLINATION":97.4147,"RA_OF_ASC_NODE":266.1085,"ARG_OF_PERICENTER":90.9117,"MEAN_ANOMALY":269.238,"EPHEMERIS_TYPE":0,"NORAD_CAT_ID":66768,"ELEMENT_SET_NO":999,"REV_AT_EPOCH":3417,"BSTAR":0.00014383666,"MEAN_MOTION_DOT":0.00003149,"MEAN_MOTION_DDOT":0},{"OBJECT_NAME":"LEMUR-2-LAILA","OBJECT_ID":"2025-276DQ","EPOCH":"2026-07-11T18:04:56.882496","CLASSIFICATION_TYPE":"U","MEAN_MOTION":15.21539973,"ECCENTRICITY":0.00029275,"INCLINATION":97.4172,"RA_OF_ASC_NODE":266.2807,"ARG_OF_PERICENTER":99.443,"MEAN_ANOMALY":260.7137,"EPHEMERIS_TYPE":0,"NORAD_CAT_ID":66776,"ELEMENT_SET_NO":999,"REV_AT_EPOCH":3418,"BSTAR":0.00016366293,"MEAN_MOTION_DOT":0.00003617,"MEAN_MOTION_DDOT":0},{"OBJECT_NAME":"LEMUR-2-CELIJO-SB-PK","OBJECT_ID":"2025-276DW","EPOCH":"2026-07-11T17:12:00.870336","CLASSIFICATION_TYPE":"U","MEAN_MOTION":15.00264436,"ECCENTRICITY":0.00071702,"INCLINATION":97.5201,"RA_OF_ASC_NODE":262.6848,"ARG_OF_PERICENTER":72.7067,"MEAN_ANOMALY":287.4941,"EPHEMERIS_TYPE":0,"NORAD_CAT_ID":66781,"ELEMENT_SET_NO":999,"REV_AT_EPOCH":2630,"BSTAR":0.00027783604,"MEAN_MOTION_DOT":0.00003423,"MEAN_MOTION_DDOT":0},{"OBJECT_NAME":"LEMUR-2-FINNIAN","OBJECT_ID":"2025-276DX","EPOCH":"2026-07-10T21:18:04.448736","CLASSIFICATION_TYPE":"U","MEAN_MOTION":15.00584478,"ECCENTRICITY":0.00084915,"INCLINATION":97.5322,"RA_OF_ASC_NODE":262.141,"ARG_OF_PERICENTER":17.3643,"MEAN_ANOMALY":342.787,"EPHEMERIS_TYPE":0,"NORAD_CAT_ID":66782,"ELEMENT_SET_NO":999,"REV_AT_EPOCH":2355,"BSTAR":0.00014532687,"MEAN_MOTION_DOT":0.00001778,"MEAN_MOTION_DDOT":0},{"OBJECT_NAME":"LEMUR-2-STARLIGHT","OBJECT_ID":"2025-276DY","EPOCH":"2026-07-11T17:34:14.439648","CLASSIFICATION_TYPE":"U","MEAN_MOTION":14.99328464,"ECCENTRICITY":0.00147587,"INCLINATION":97.5233,"RA_OF_ASC_NODE":262.5314,"ARG_OF_PERICENTER":57.456,"MEAN_ANOMALY":302.8087,"EPHEMERIS_TYPE":0,"NORAD_CAT_ID":66783,"ELEMENT_SET_NO":999,"REV_AT_EPOCH":3387,"BSTAR":0.000319694,"MEAN_MOTION_DOT":0.00003858,"MEAN_MOTION_DDOT":0},{"OBJECT_NAME":"LEMUR-2-TARTIFLETTE","OBJECT_ID":"2025-276DZ","EPOCH":"2026-07-11T17:31:53.410656","CLASSIFICATION_TYPE":"U","MEAN_MOTION":14.99314524,"ECCENTRICITY":0.00138609,"INCLINATION":97.5236,"RA_OF_ASC_NODE":262.5376,"ARG_OF_PERICENTER":65.4884,"MEAN_ANOMALY":294.7783,"EPHEMERIS_TYPE":0,"NORAD_CAT_ID":66784,"ELEMENT_SET_NO":999,"REV_AT_EPOCH":3387,"BSTAR":0.00028252367,"MEAN_MOTION_DOT":0.00003401,"MEAN_MOTION_DDOT":0},{"OBJECT_NAME":"LEMUR-2-VUKASIN","OBJECT_ID":"2025-276EA","EPOCH":"2026-07-11T18:29:14.925696","CLASSIFICATION_TYPE":"U","MEAN_MOTION":15.00527711,"ECCENTRICITY":0.00035778,"INCLINATION":97.524,"RA_OF_ASC_NODE":262.929,"ARG_OF_PERICENTER":64.9856,"MEAN_ANOMALY":295.1739,"EPHEMERIS_TYPE":0,"NORAD_CAT_ID":66785,"ELEMENT_SET_NO":999,"REV_AT_EPOCH":3383,"BSTAR":0.00023704415,"MEAN_MOTION_DOT":0.00002931,"MEAN_MOTION_DDOT":0},{"OBJECT_NAME":"LEMUR-2-HOTSPUR-TOM","OBJECT_ID":"2025-276EB","EPOCH":"2026-07-11T17:23:30.411456","CLASSIFICATION_TYPE":"U","MEAN_MOTION":14.99219626,"ECCENTRICITY":0.00138345,"INCLINATION":97.5223,"RA_OF_ASC_NODE":262.5077,"ARG_OF_PERICENTER":56.6609,"MEAN_ANOMALY":303.5937,"EPHEMERIS_TYPE":0,"NORAD_CAT_ID":66786,"ELEMENT_SET_NO":999,"REV_AT_EPOCH":3380,"BSTAR":0.00026466452,"MEAN_MOTION_DOT":0.00003174,"MEAN_MOTION_DDOT":0}]}
